{
  "norad_id": 68627,
  "name": "STP-S29A OBJECT A",
  "history": [
    {
      "epoch": "2026-04-07T22:00:34.011648Z",
      "apogee_km": 506.613890999919,
      "perigee_km": 486.43538416129195,
      "latitude_deg": 1.8786999519864008e-06,
      "longitude_deg": -78.60649873926329,
      "height_km": 493.525701871343,
      "semi_major_axis_km": 6874.661637580605,
      "eccentricity": 0.0014676,
      "inclination_deg": 60.0189,
      "raan_deg": 87.7223,
      "arg_perigee_deg": 297.1477,
      "mean_anomaly_deg": 62.8106,
      "mean_motion_rev_day": 15.23090715
    }
  ]
}