STP-S29A OBJECT A       
1 68627U 26074A   26097.91706032  .00004294  00000+0  19197-3 0  9998
2 68627  60.0189  87.7223 0014676 297.1477  62.8106 15.23090715    78
